STARLINK-1653
1 46352U 20062AD  26061.14958932  .00126331  00000+0  17000-2 0  9991
2 46352  53.0471 359.0626 0005030 232.6591 127.3962 15.56963800303907
